{
  "type": "FeatureCollection",
  "features": [
    {
      "type": "Feature",
      "properties": {
        "norad_id": 44873,
        "name": "CSG-1",
        "group": "resource",
        "lat": -31.742999380482186,
        "lon": -15.300850117687185,
        "alt_km": 629.2210879318136,
        "timestamp": "2025-12-14T07:33:19.135745+00:00",
        "meta_object_name": "CSG-1",
        "meta_object_id": "2019-092A",
        "meta_epoch": "2025-12-13T16:01:11.318304",
        "meta_mean_motion": 14.82166148,
        "meta_eccentricity": 0.0001443,
        "meta_inclination": 97.881,
        "meta_ra_of_asc_node": 168.9777,
        "meta_arg_of_pericenter": 84.9836,
        "meta_mean_anomaly": 275.1542,
        "meta_ephemeris_type": 0,
        "meta_classification_type": "U",
        "meta_norad_cat_id": 44873,
        "meta_element_set_no": 999,
        "meta_rev_at_epoch": 32399,
        "meta_bstar": 0.00012284787,
        "meta_mean_motion_dot": 9.26e-06,
        "meta_mean_motion_ddot": 0,
        "tle_line1": "1 44873U 19092A   25347.66749211  .00000926  00000+0  12285-3 0  9991",
        "tle_line2": "2 44873  97.8810 168.9777 0001443  84.9836 275.1542 14.82166148323999"
      },
      "geometry": {
        "type": "Point",
        "coordinates": [
          -15.300850117687185,
          -31.742999380482186
        ]
      }
    },
    {
      "type": "Feature",
      "properties": {
        "norad_id": 46277,
        "name": "NEMO-HD",
        "group": "resource",
        "lat": -19.919864635905828,
        "lon": 50.02620555209138,
        "alt_km": 449.954112141374,
        "timestamp": "2025-12-14T07:33:19.135755+00:00",
        "meta_object_name": "NEMO-HD",
        "meta_object_id": "2020-061F",
        "meta_epoch": "2025-12-13T16:03:04.900608",
        "meta_mean_motion": 15.40352774,
        "meta_eccentricity": 0.00018317,
        "meta_inclination": 97.2215,
        "meta_ra_of_asc_node": 46.7546,
        "meta_arg_of_pericenter": 55.6098,
        "meta_mean_anomaly": 304.5322,
        "meta_ephemeris_type": 0,
        "meta_classification_type": "U",
        "meta_norad_cat_id": 46277,
        "meta_element_set_no": 999,
        "meta_rev_at_epoch": 29338,
        "meta_bstar": 0.00032120503,
        "meta_mean_motion_dot": 0.00012889,
        "meta_mean_motion_ddot": 0,
        "tle_line1": "1 46277U 20061F   25347.66880672  .00012889  00000+0  32121-3 0  9998",
        "tle_line2": "2 46277  97.2215  46.7546 0001831  55.6098 304.5322 15.40352774293384"
      },
      "geometry": {
        "type": "Point",
        "coordinates": [
          50.02620555209138,
          -19.919864635905828
        ]
      }
    },
    {
      "type": "Feature",
      "properties": {
        "norad_id": 46984,
        "name": "SENTINEL-6A",
        "group": "resource",
        "lat": 16.75614252650021,
        "lon": -28.65699717884701,
        "alt_km": 1339.0293216605542,
        "timestamp": "2025-12-14T07:33:19.135766+00:00",
        "meta_object_name": "SENTINEL-6A",
        "meta_object_id": "2020-086A",
        "meta_epoch": "2025-12-13T15:43:25.244256",
        "meta_mean_motion": 12.80930598,
        "meta_eccentricity": 0.00077329,
        "meta_inclination": 66.0389,
        "meta_ra_of_asc_node": 160.4067,
        "meta_arg_of_pericenter": 269.2353,
        "meta_mean_anomaly": 90.7776,
        "meta_ephemeris_type": 0,
        "meta_classification_type": "U",
        "meta_norad_cat_id": 46984,
        "meta_element_set_no": 999,
        "meta_rev_at_epoch": 23656,
        "meta_bstar": 0.00012007547,
        "meta_mean_motion_dot": -3.3e-07,
        "meta_mean_motion_ddot": 0,
        "tle_line1": "1 46984U 20086A   25347.65515329 -.00000033  00000+0  12008-3 0  9994",
        "tle_line2": "2 46984  66.0389 160.4067 0007732 269.2353  90.7776 12.80930598236561"
      },
      "geometry": {
        "type": "Point",
        "coordinates": [
          -28.65699717884701,
          16.75614252650021
        ]
      }
    },
    {
      "type": "Feature",
      "properties": {
        "norad_id": 48079,
        "name": "GAOFEN-12 02",
        "group": "resource",
        "lat": 73.98578385144431,
        "lon": -168.40649608671353,
        "alt_km": 617.6358816020875,
        "timestamp": "2025-12-14T07:33:19.135776+00:00",
        "meta_object_name": "GAOFEN-12 02",
        "meta_object_id": "2021-026A",
        "meta_epoch": "2025-12-13T16:29:28.294656",
        "meta_mean_motion": 14.80676663,
        "meta_eccentricity": 0.00035622,
        "meta_inclination": 97.9852,
        "meta_ra_of_asc_node": 341.6889,
        "meta_arg_of_pericenter": 99.2153,
        "meta_mean_anomaly": 260.9462,
        "meta_ephemeris_type": 0,
        "meta_classification_type": "U",
        "meta_norad_cat_id": 48079,
        "meta_element_set_no": 999,
        "meta_rev_at_epoch": 25431,
        "meta_bstar": 0.00010886757,
        "meta_mean_motion_dot": 7.84e-06,
        "meta_mean_motion_ddot": 0,
        "tle_line1": "1 48079U 21026A   25347.68713304  .00000784  00000+0  10887-3 0  9997",
        "tle_line2": "2 48079  97.9852 341.6889 0003562  99.2153 260.9462 14.80676663254315"
      },
      "geometry": {
        "type": "Point",
        "coordinates": [
          -168.40649608671353,
          73.98578385144431
        ]
      }
    },
    {
      "type": "Feature",
      "properties": {
        "norad_id": 48268,
        "name": "PLEIADES NEO 3",
        "group": "resource",
        "lat": 3.3056963737528062,
        "lon": -118.80796208314679,
        "alt_km": 626.5469964271297,
        "timestamp": "2025-12-14T07:33:19.135787+00:00",
        "meta_object_name": "PLEIADES NEO 3",
        "meta_object_id": "2021-034A",
        "meta_epoch": "2025-12-13T16:10:27.146784",
        "meta_mean_motion": 14.81676233,
        "meta_eccentricity": 0.00012932,
        "meta_inclination": 97.894,
        "meta_ra_of_asc_node": 60.1013,
        "meta_arg_of_pericenter": 92.6887,
        "meta_mean_anomaly": 267.4474,
        "meta_ephemeris_type": 0,
        "meta_classification_type": "U",
        "meta_norad_cat_id": 48268,
        "meta_element_set_no": 999,
        "meta_rev_at_epoch": 25018,
        "meta_bstar": 0.00027975636,
        "meta_mean_motion_dot": 2.15e-05,
        "meta_mean_motion_ddot": 0,
        "tle_line1": "1 48268U 21034A   25347.67392531  .00002150  00000+0  27976-3 0  9996",
        "tle_line2": "2 48268  97.8940  60.1013 0001293  92.6887 267.4474 14.81676233250184"
      },
      "geometry": {
        "type": "Point",
        "coordinates": [
          -118.80796208314679,
          3.3056963737528062
        ]
      }
    },
    {
      "type": "Feature",
      "properties": {
        "norad_id": 49070,
        "name": "PLEIADES NEO 4",
        "group": "resource",
        "lat": -3.5044899515532895,
        "lon": 61.21559883975812,
        "alt_km": 627.4933071394053,
        "timestamp": "2025-12-14T07:33:19.135797+00:00",
        "meta_object_name": "PLEIADES NEO 4",
        "meta_object_id": "2021-073E",
        "meta_epoch": "2025-12-12T08:34:07.569120",
        "meta_mean_motion": 14.81676895,
        "meta_eccentricity": 0.00012379,
        "meta_inclination": 97.8941,
        "meta_ra_of_asc_node": 58.7994,
        "meta_arg_of_pericenter": 92.1719,
        "meta_mean_anomaly": 267.9635,
        "meta_ephemeris_type": 0,
        "meta_classification_type": "U",
        "meta_norad_cat_id": 49070,
        "meta_element_set_no": 999,
        "meta_rev_at_epoch": 23370,
        "meta_bstar": 3.8133e-06,
        "meta_mean_motion_dot": -2.2e-07,
        "meta_mean_motion_ddot": 0,
        "tle_line1": "1 49070U 21073E   25346.35703205 -.00000022  00000+0  38133-5 0  9995",
        "tle_line2": "2 49070  97.8941  58.7994 0001237  92.1719 267.9635 14.81676895233702"
      },
      "geometry": {
        "type": "Point",
        "coordinates": [
          61.21559883975812,
          -3.5044899515532895
        ]
      }
    },
    {
      "type": "Feature",
      "properties": {
        "norad_id": 49260,
        "name": "LANDSAT 9",
        "group": "resource",
        "lat": -53.410130460564005,
        "lon": -134.81017367184,
        "alt_km": 710.2359536099502,
        "timestamp": "2025-12-14T07:33:19.135807+00:00",
        "meta_object_name": "LANDSAT 9",
        "meta_object_id": "2021-088A",
        "meta_epoch": "2025-12-13T15:39:04.728384",
        "meta_mean_motion": 14.57099195,
        "meta_eccentricity": 0.00011757,
        "meta_inclination": 98.2095,
        "meta_ra_of_asc_node": 55.7501,
        "meta_arg_of_pericenter": 89.6273,
        "meta_mean_anomaly": 270.506,
        "meta_ephemeris_type": 0,
        "meta_classification_type": "U",
        "meta_norad_cat_id": 49260,
        "meta_element_set_no": 999,
        "meta_rev_at_epoch": 22398,
        "meta_bstar": 0.00015445641,
        "meta_mean_motion_dot": 6.5e-06,
        "meta_mean_motion_ddot": 0,
        "tle_line1": "1 49260U 21088A   25347.65213806  .00000650  00000+0  15446-3 0  9995",
        "tle_line2": "2 49260  98.2095  55.7501 0001175  89.6273 270.5060 14.57099195223982"
      },
      "geometry": {
        "type": "Point",
        "coordinates": [
          -134.81017367184,
          -53.410130460564005
        ]
      }
    }
  ]
}